WNISAT-1                
1 39423U 13066H   24119.51234033  .00002282  00000+0  44368-3 0  9996
2 39423  97.6738 317.8631 0170826 164.8039 195.8384 14.55084423553420
TRITON-1                
1 39427U 13066M   24119.48955249  .00004016  00000+0  57459-3 0  9997
2 39427  97.8427  39.0946 0101950 241.7497 117.3391 14.73646757559087
DELFI-N3XT              
1 39428U 13066N   24118.75486357  .00009918  00000+0  12902-2 0  9995
2 39428  97.8393  38.4532 0100530 251.7717 107.2532 14.77324469558646
GOMX-1                  
1 39430U 13066Q   24119.49927676  .00004147  00000+0  69395-3 0  9992
2 39430  97.7387 356.8834 0142166  51.1955 310.1844 14.63808679555777
CUBEBUG-2 (LO-74)       
1 39440U 13066AA  24118.84565800  .00008902  00000+0  10593-2 0  9996
2 39440  97.8105  63.6359 0072659  79.0114 281.9262 14.82692338560877
NEE-02 KRYSAOR          
1 39441U 13066AB  24118.79935426  .00005828  00000+0  74499-3 0  9996
2 39441  97.8198  59.6492 0076676  99.5265 261.4622 14.79677408560487
FUNCUBE-1 (AO-73)       
1 39444U 13066AE  24119.17308217  .00012797  00000+0  12625-2 0  9999
2 39444  97.7170  79.3042 0046906 308.9334  50.7708 14.91288205563244
UWE-3                   
1 39446U 13066AG  24119.41680793  .00009928  00000+0  11173-2 0  9999
2 39446  97.7783  70.2545 0062001  24.9195 335.4992 14.85455808561905
BRITE-CA1 (TORONTO)     
1 40020U 14033L   24119.37609313  .00003044  00000+0  49927-3 0  9990
2 40020  97.8696 258.2807 0082269 250.8199 108.4090 14.69188763527667
DUCHIFAT-1              
1 40021U 14033M   24119.47840469  .00013683  00000+0  94933-3 0  9998
2 40021  98.0902 100.8285 0010520 266.1130  93.8893 15.05676473536646
NANOSATC-BR1            
1 40024U 14033Q   24118.86945524  .00017842  00000+0  13605-2 0  9998
2 40024  98.0595  88.9407 0006385 350.6616   9.4488 15.02077714535698
QB50P1                  
1 40025U 14033R   24118.82990318  .00013416  00000+0  11158-2 0  9990
2 40025  98.0383  77.9802 0008318 338.7642  21.3233 14.98804569535337
QB50P2                  
1 40032U 14033Y   24118.82279620  .00011916  00000+0  10232-2 0  9999
2 40032  98.0055  69.9907 0008621 337.7746  22.3101 14.97592715535138
PERSEUS-M2              
1 40037U 14033AD  24119.54380403  .00003829  00000+0  40083-3 0  9998
2 40037  97.9254  50.1757 0013329   6.6268 353.5123 14.90155261534933
PERSEUS-M1              
1 40039U 14033AF  24118.75537633  .00005084  00000+0  53329-3 0  9993
2 40039  97.9065  45.5842 0013241   9.0779 351.0675 14.89909125534170
POLYITAN-1              
1 40042U 14033AJ  24118.85265097  .00017512  00000+0  13652-2 0  9993
2 40042  98.0610  81.1398 0012657 310.0405  49.9707 15.01191359535284
TIGRISAT                
1 40043U 14033AK  24119.20244740  .00005951  00000+0  79836-3 0  9997
2 40043  97.6915 284.1188 0057018 106.2423 254.5072 14.78567996530376
AEROCUBE 6A             
1 40045U 14033AM  24119.06739042  .00010929  00000+0  13261-2 0  9997
2 40045  97.6682 294.5627 0052138  86.5614 274.1562 14.82745535530602
AEROCUBE 6B             
1 40046U 14033AN  24119.46954137  .00009965  00000+0  11863-2 0  9990
2 40046  97.6645 293.6101 0050709  81.1920 279.5032 14.83608583530852
UKUBE-1                 
1 40074U 14037F   24119.35284925  .00012674  00000+0  12268-2 0  9995
2 40074  98.3425  46.2557 0002604 207.6437 152.4642 14.92896264531349
BRITE-PL2 (HEWELIUSZ)   
1 40119U 14049B   24119.21086732  .00005170  00000+0  56071-3 0  9993
2 40119  97.8784 219.1258 0016499 164.9896 195.1814 14.88513698525239
CP10 (EXOCUBE)          
1 40380U 15003E   24118.93277597  .00181503  00000+0  13946-2 0  9991
2 40380  99.0975 130.1904 0041338 285.1778  74.4909 15.70328611511500
AEROCUBE 5C             
1 40965U 15058B   24119.48421529  .00005391  00000+0  51089-3 0  9998
2 40965  64.7689 154.1875 0187829 323.5550  35.2888 14.82200474249668
AEROCUBE 7              
1 40966U 15058C   24119.49231815  .00007058  00000+0  64309-3 0  9998
2 40966  64.7666 148.3744 0183277 323.2604  35.6053 14.83906536249755
BISONSAT                
1 40968U 15058E   24118.61690775  .00008814  00000+0  81032-3 0  9990
2 40968  64.7769 163.7479 0182897 318.6327  40.1047 14.83417529   314
SNAP-3 EDDIE            
1 40972U 15058J   24118.70342380  .00026685  00000+0  19173-2 0  9993
2 40972  64.7680 117.1530 0156647 317.7502  41.1626 14.94805609   339
PROPCUBE 1 (FLORA)      
1 40976U 15058N   24119.52150798  .00004627  00000+0  46424-3 0  9990
2 40976  64.7755 178.4228 0186325 321.9461  36.8602 14.80452592   448
VELOX-II                
1 41171U 15077F   24118.58672322  .00138452  00000+0  17425-2 0  9998
2 41171  14.9872  94.1011 0001045 107.7654 252.2787 15.57726985463903
HORYU-4                 
1 41340U 16012D   24118.89359818  .00019166  00000+0  99403-3 0  9999
2 41340  31.0029 303.0425 0009269 179.7214 180.3431 15.14954009450516
E-ST@R-II               
1 41459U 16025D   24119.44516273  .01235410  83476-3  21564-2 0  9993
2 41459  98.1151   6.3480 0018173  65.0958 295.2206 16.02015698441827
RAVAN                   
1 41849U 16067B   24119.46129058  .00014346  00000+0  81707-3 0  9991
2 41849  98.0631 294.2829 0013576 194.0005 166.0849 15.12862301408467
CELTEE 1                
1 41850U 16067C   24119.40845875  .00010350  00000+0  71783-3 0  9993
2 41850  98.1003 286.3840 0001055  53.4763 306.6559 15.05808023407930
OPTICUBE 04             
1 41851U 16067D   24119.40646024  .00006990  00000+0  53259-3 0  9992
2 41851  98.0700 282.2901 0018206 222.5736 137.4077 15.02267102407762
AEROCUBE 8D             
1 41852U 16067E   24119.43583628  .00010752  00000+0  72430-3 0  9999
2 41852  98.1039 286.0414 0004119 271.3911  88.6843 15.06876758407906
AEROCUBE 8C             
1 41853U 16067F   24118.91652030  .00012372  00000+0  83374-3 0  9995
2 41853  98.0855 284.2008 0007892 201.0391 159.0512 15.06806233407811
PROMETHEUS 2-1          
1 41854U 16067G   24119.46118663  .00024392  00000+0  13058-2 0  9992
2 41854  98.0986 291.3387 0013214 223.8128 136.2055 15.14956046408201
PROMETHEUS 2-3          
1 41855U 16067H   24119.45678619  .00023979  00000+0  12850-2 0  9993
2 41855  98.0912 290.8710 0011123 233.1730 126.8481 15.14945979408206
DIDO-2                  
1 42000U 17008BE  24118.91401179  .00161616  00000+0  12194-2 0  9999
2 42000  97.1406 179.0230 0002626 272.5474  87.5489 15.71987196400867
AALTO-1                 
1 42775U 17036L   24119.03899249  .00088014  00000+0  11244-2 0  9997
2 42775  97.1107 148.3581 0005389  55.8067 304.3700 15.58945968381276
URSA MAIOR              
1 42776U 17036M   24119.54297668  .00139021  00000+0  11057-2 0  9998
2 42776  97.1064 152.2829 0002702  59.2376 300.9153 15.70791162381560
CICERO 6                
1 42793U 17036AE  24118.82461280  .00271688  00000+0  16946-2 0  9998
2 42793  97.0925 155.7949 0001834  99.4033 260.7441 15.76130961381839
CORVUS BC2              
1 42846U 17042X   24119.47473172  .00007180  00000+0  62470-3 0  9997
2 42846  97.3758 307.3634 0007245 215.5044 144.5697 14.97206565370001
CORVUS BC1              
1 42847U 17042Y   24119.50763475  .00004739  00000+0  41252-3 0  9992
2 42847  97.3739 307.7909 0007483 219.6165 140.4512 14.97351750370023
MIRATA                  
1 43015U 17073C   24119.46078345  .00030115  00000+0  14746-2 0  9998
2 43015  97.6017   4.8511 0178521  70.9171 291.1293 15.05142337348848
MAKERSAT 0              
1 43016U 17073D   24118.91008883  .00020858  00000+0  12080-2 0  9990
2 43016  97.5872 359.3278 0202377  91.5671 270.8742 14.96514356348392
CORVUS BC3              
1 43118U 18004H   24118.73462845  .00215968  00000+0  14383-2 0  9996
2 43118  97.2879 202.9305 0000839  77.3600 282.7759 15.74769857350945
GOMX-4B                 
1 43196U 18015E   24119.40945396  .00067875  00000+0  91993-3 0  9991
2 43196  97.6069 289.4506 0008882 142.4078 217.7799 15.57410616347763
GOMX-4A                 
1 43197U 18015F   24119.53142013  .00079114  00000+0  77786-3 0  9994
2 43197  97.5986 293.9586 0007019 135.1049 225.0779 15.65736873348088
CICERO 10               
1 43690U 18088A   24118.71189924  .00125646  00000+0  11930-2 0  9993
2 43690  85.0174 215.5021 0006403 143.3472 216.8234 15.66463245304276
PROXIMA I               
1 43694U 18088E   24118.96476785  .00472786  82403-4  16067-2 0  9996
2 43694  85.0055 208.4032 0002166 252.8004 107.3037 15.89823039304800
PROXIMA II              
1 43696U 18088G   24119.49922674  .00443912  00000+0  15495-2 0  9991
2 43696  85.0064 208.1956 0002148 256.0446 104.0593 15.88279322304877
SIRION PATHFINDER-2     
1 43759U 18099B   24118.94396647  .00009084  00000+0  69399-3 0  9998
2 43759  97.5345 176.5165 0014828 100.1552 260.1346 15.02087209294967
CORVUS BC4              
1 43767U 18099K   24118.88862963  .00008857  00000+0  68941-3 0  9998
2 43767  97.5197 173.8154 0009515 162.8800 197.2748 15.01436075294848
MOVE-II                 
1 43780U 18099Y   24119.14916025  .00026094  00000+0  14555-2 0  9996
2 43780  97.5242 182.6761 0008510 146.5246 213.6524 15.13512394295357
SPACEBEE-7              
1 43816U 18099BL  24118.67032568  .00020000  00000+0  12329-2 0  9992
2 43816  97.5502 183.0322 0011582 104.7043 255.5471 15.09929307294781
SPACEBEE-6              
1 43818U 18099BN  24118.90868825  .00042981  00000+0  20040-2 0  9994
2 43818  97.5440 187.8374 0010116 110.8669 249.3650 15.19691326295269
SHIELDS 1               
1 43850U 18104B   24118.79536529  .00017832  00000+0  50513-3 0  9993
2 43850  85.0215 317.2834 0009134 258.1776 101.8449 15.36101025298420
SONATE                  
1 44400U 19038Q   24119.53147058  .00021320  00000+0  69288-3 0  9996
2 44400  97.7133 111.5001 0014086 282.0581  77.9081 15.31842912266471
